{"type":"FeatureCollection","note":"San Francisco Analysis Neighborhoods (41) from DataSF, dataset j2bu-swwd, Open Data Commons PDDL (public domain). Simplified to ~10 m (simplify_preserve_topology 0.0001 deg) and rounded to 5 decimals. id/label are ours (feature-specs/venues.md, phase 4); nhood is DataSF's name. Regenerate with the query in service/places/regions.py.","features":[
{"type":"Feature","properties":{"id":"bayview-hunters-point","label":"Bayview Hunters Point","nhood":"Bayview Hunters Point"},"geometry":{"type":"MultiPolygon","coordinates":[[[[-122.38171,37.75319],[-122.38128,37.75292],[-122.37988,37.75289],[-122.38003,37.75271],[-122.37996,37.75203],[-122.37609,37.75225],[-122.37577,37.74871],[-122.38491,37.74814],[-122.38465,37.7482],[-122.38474,37.7483],[-122.38512,37.74811],[-122.38611,37.74808],[-122.38627,37.74791],[-122.38679,37.74789],[-122.38734,37.74759],[-122.38777,37.74785],[-122.38811,37.74783],[-122.3881,37.74771],[-122.38815,37.74783],[-122.39041,37.74771],[-122.39216,37.74847],[-122.39293,37.74855],[-122.39308,37.74813],[-122.39291,37.74744],[-122.39156,37.74701],[-122.39161,37.74723],[-122.39129,37.74714],[-122.3915,37.74697],[-122.39049,37.74669],[-122.3877,37.74694],[-122.38746,37.7471],[-122.38706,37.7471],[-122.38701,37.74691],[-122.38271,37.74716],[-122.38202,37.74706],[-122.37966,37.74721],[-122.37961,37.74698],[-122.37609,37.74714],[-122.37541,37.747],[-122.37499,37.74671],[-122.37477,37.7464],[-122.37495,37.74578],[-122.37412,37.74497],[-122.37276,37.74551],[-122.36763,37.74013],[-122.36829,37.73998],[-122.36827,37.73983],[-122.37125,37.73966],[-122.37126,37.73979],[-122.37397,37.73956],[-122.3736,37.7388],[-122.37318,37.73845],[-122.3726,37.73828],[-122.37054,37.73815],[-122.36752,37.73834],[-122.36739,37.73822],[-122.37079,37.73737],[-122.3713,37.73706],[-122.37193,37.73703],[-122.37213,37.73716],[-122.37292,37.73704],[-122.37354,37.73718],[-122.37432,37.73779],[-122.37554,37.73835],[-122.37598,37.73848],[-122.37632,37.73839],[-122.37646,37.73825],[-122.37602,37.73799],[-122.37514,37.7378],[-122.37488,37.7373],[-122.37524,37.73623],[-122.37574,37.73583],[-122.37597,37.73582],[-122.37583,37.73549],[-122.376,37.73519],[-122.37587,37.73505],[-122.37532,37.73539],[-122.37487,37.73492],[-122.37515,37.73456],[-122.37489,37.73442],[-122.37496,37.73389],[-122.37517,37.7338],[-122.37569,37.73288],[-122.37557,37.73272],[-122.3752,37.73296],[-122.37497,37.73275],[-122.37461,37.73288],[-122.37491,37.73261],[-122.37482,37.73253],[-122.37418,37.73259],[-122.37351,37.73295],[-122.37252,37.734],[-122.37191,37.73421],[-122.37071,37.73311],[-122.36959,37.73248],[-122.36951,37.7322],[-122.36921,37.73199],[-122.36871,37.73196],[-122.36862,37.73224],[-122.36837,37.73229],[-122.36746,37.73195],[-122.36685,37.7323],[-122.36668,37.73221],[-122.36526,37.7338],[-122.36654,37.73218],[-122.36623,37.73224],[-122.36556,37.73299],[-122.36533,37.733],[-122.36619,37.73192],[-122.366,37.73183],[-122.36501,37.73283],[-122.36497,37.73266],[-122.36581,37.73172],[-122.36565,37.73163],[-122.36483,37.73254],[-122.36473,37.73249],[-122.36511,37.73207],[-122.3637,37.73128],[-122.36288,37.73214],[-122.36262,37.73201],[-122.3634,37.73112],[-122.36285,37.7308],[-122.36206,37.73167],[-122.36178,37.73154],[-122.36257,37.73064],[-122.36198,37.73033],[-122.36209,37.73021],[-122.36191,37.73009],[-122.3612,37.73008],[-122.36088,37.72991],[-122.36074,37.73023],[-122.35991,37.73033],[-122.35879,37.72978],[-122.35897,37.72952],[-122.36197,37.72881],[-122.36228,37.72852],[-122.36145,37.72852],[-122.35773,37.72944],[-122.35748,37.72925],[-122.35788,37.72895],[-122.36008,37.72844],[-122.36041,37.72822],[-122.35996,37.72815],[-122.35716,37.72883],[-122.35712,37.72866],[-122.35697,37.72871],[-122.3577,37.72628],[-122.35801,37.72604],[-122.36164,37.72522],[-122.36126,37.72417],[-122.35796,37.72494],[-122.35784,37.72462],[-122.36152,37.72377],[-122.3649,37.7257],[-122.36518,37.7257],[-122.36532,37.72551],[-122.36505,37.72523],[-122.36237,37.72368],[-122.36275,37.72326],[-122.35998,37.72163],[-122.36024,37.72136],[-122.363,37.72298],[-122.36381,37.7221],[-122.35913,37.71931],[-122.35998,37.71848],[-122.36271,37.72007],[-122.36366,37.71905],[-122.36253,37.71841],[-122.36252,37.71815],[-122.35858,37.71588],[-122.35872,37.71573],[-122.36265,37.71802],[-122.36387,37.71673],[-122.35992,37.71443],[-122.36004,37.7143],[-122.36397,37.71658],[-122.36522,37.71535],[-122.36519,37.71518],[-122.36109,37.71285],[-122.36117,37.71275],[-122.36539,37.71524],[-122.36441,37.71631],[-122.36463,37.71647],[-122.36485,37.71642],[-122.36522,37.71601],[-122.36555,37.716],[-122.36634,37.71681],[-122.36776,37.71767],[-122.36953,37.71785],[-122.3699,37.7181],[-122.37013,37.71853],[-122.3705,37.71872],[-122.37223,37.71904],[-122.37352,37.7188],[-122.374,37.71891],[-122.37447,37.71977],[-122.37556,37.72045],[-122.37588,37.72126],[-122.37595,37.72271],[-122.3767,37.72344],[-122.37666,37.72359],[-122.37708,37.72424],[-122.37894,37.7238],[-122.37929,37.72305],[-122.3798,37.72279],[-122.38001,37.72222],[-122.38079,37.72176],[-122.38168,37.72217],[-122.38213,37.72216],[-122.38294,37.72259],[-122.38382,37.72319],[-122.38391,37.72344],[-122.38436,37.72354],[-122.38504,37.72411],[-122.38559,37.72414],[-122.38645,37.72447],[-122.38692,37.72416],[-122.38283,37.72188],[-122.38272,37.72171],[-122.38281,37.72135],[-122.3834,37.72052],[-122.3832,37.72009],[-122.38176,37.71936],[-122.38129,37.71878],[-122.38037,37.7187],[-122.3797,37.71835],[-122.37908,37.71778],[-122.37719,37.71685],[-122.37613,37.71611],[-122.37733,37.71437],[-122.3789,37.71309],[-122.3797,37.71179],[-122.38002,37.71155],[-122.38005,37.71062],[-122.379,37.71],[-122.37846,37.7093],[-122.37835,37.70886],[-122.37792,37.7086],[-122.37685,37.70891],[-122.37639,37.70964],[-122.37606,37.70969],[-122.37559,37.70959],[-122.3746,37.70904],[-122.37442,37.70864],[-122.37603,37.70839],[-122.3794,37.70842],[-122.38045,37.70879],[-122.38453,37.7093],[-122.38602,37.71],[-122.38679,37.70977],[-122.38808,37.70867],[-122.38872,37.70892],[-122.38971,37.70962],[-122.39055,37.70919],[-122.39149,37.7097],[-122.39317,37.7084],[-122.40545,37.70835],[-122.40468,37.70993],[-122.40328,37.71182],[-122.40282,37.71213],[-122.40126,37.71264],[-122.40047,37.71312],[-122.39936,37.71427],[-122.39899,37.71534],[-122.39833,37.71626],[-122.39855,37.71786],[-122.39912,37.71973],[-122.39939,37.71988],[-122.40118,37.72459],[-122.40221,37.7281],[-122.4034,37.73066],[-122.4051,37.73372],[-122.40646,37.73551],[-122.40677,37.73642],[-122.40695,37.73783],[-122.40691,37.73943],[-122.40705,37.73971],[-122.40691,37.74076],[-122.40459,37.74413],[-122.40419,37.74524],[-122.40432,37.74593],[-122.40406,37.74625],[-122.40356,37.74776],[-122.40374,37.74839],[-122.4039,37.74843],[-122.40357,37.74947],[-122.40287,37.74948],[-122.40278,37.75039],[-122.40261,37.75056],[-122.40047,37.75067],[-122.39941,37.75099],[-122.39641,37.75118],[-122.39651,37.75231],[-122.38171,37.75319]]]]}},
{"type":"Feature","properties":{"id":"bernal-heights","label":"Bernal Heights","nhood":"Bernal Heights"},"geometry":{"type":"MultiPolygon","coordinates":[[[[-122.40357,37.74947],[-122.4039,37.74843],[-122.40374,37.74839],[-122.40356,37.74776],[-122.40406,37.74625],[-122.40432,37.74593],[-122.40419,37.74524],[-122.40459,37.74413],[-122.40691,37.74076],[-122.40705,37.73971],[-122.40691,37.73943],[-122.40691,37.73797],[-122.40822,37.73761],[-122.40834,37.73668],[-122.40866,37.736],[-122.40914,37.73538],[-122.40995,37.73472],[-122.41208,37.73346],[-122.41378,37.73267],[-122.41594,37.73207],[-122.42036,37.73201],[-122.42455,37.73155],[-122.4261,37.73165],[-122.42804,37.73202],[-122.42611,37.73395],[-122.42857,37.73508],[-122.4256,37.73732],[-122.42472,37.73843],[-122.42415,37.73987],[-122.42426,37.73993],[-122.42405,37.74063],[-122.42267,37.74394],[-122.42228,37.74548],[-122.42192,37.74583],[-122.42133,37.74744],[-122.42139,37.74812],[-122.40788,37.74841],[-122.40631,37.74894],[-122.40357,37.74947]]]]}},
{"type":"Feature","properties":{"id":"castro-upper-market","label":"Castro / Upper Market","nhood":"Castro/Upper Market"},"geometry":{"type":"MultiPolygon","coordinates":[[[[-122.42631,37.7696],[-122.42695,37.76918],[-122.42671,37.76898],[-122.42561,37.75663],[-122.4378,37.75589],[-122.43777,37.75554],[-122.43886,37.75543],[-122.43917,37.75903],[-122.44218,37.75894],[-122.44237,37.75758],[-122.44222,37.75664],[-122.44298,37.75616],[-122.44496,37.75727],[-122.44511,37.75696],[-122.44441,37.75657],[-122.44438,37.7564],[-122.44503,37.75661],[-122.44595,37.75641],[-122.44695,37.75655],[-122.44792,37.75759],[-122.4473,37.75789],[-122.4464,37.75886],[-122.44641,37.76109],[-122.44678,37.76178],[-122.44638,37.76182],[-122.44639,37.76223],[-122.44569,37.76235],[-122.44466,37.76333],[-122.4443,37.76431],[-122.444,37.7647],[-122.44401,37.76502],[-122.44257,37.76593],[-122.44194,37.76595],[-122.4406,37.76696],[-122.44014,37.76776],[-122.43882,37.7684],[-122.43834,37.76901],[-122.43711,37.76896],[-122.42631,37.7696]]]]}},
{"type":"Feature","properties":{"id":"chinatown","label":"Chinatown","nhood":"Chinatown"},"geometry":{"type":"MultiPolygon","coordinates":[[[[-122.41291,37.80218],[-122.40551,37.79707],[-122.40086,37.79765],[-122.40015,37.79413],[-122.40461,37.79356],[-122.40442,37.79264],[-122.40917,37.79204],[-122.40972,37.79474],[-122.41136,37.79453],[-122.41291,37.80218]]]]}},
{"type":"Feature","properties":{"id":"excelsior","label":"Excelsior","nhood":"Excelsior"},"geometry":{"type":"MultiPolygon","coordinates":[[[[-122.42398,37.73155],[-122.4217,37.73181],[-122.42175,37.73109],[-122.42018,37.73146],[-122.41936,37.73144],[-122.41949,37.72905],[-122.41874,37.72909],[-122.41686,37.7288],[-122.41519,37.72922],[-122.41446,37.72746],[-122.4184,37.72642],[-122.41791,37.72522],[-122.42381,37.72369],[-122.42485,37.72205],[-122.42455,37.72165],[-122.42548,37.72023],[-122.42583,37.7193],[-122.42639,37.71856],[-122.42667,37.71708],[-122.42731,37.71507],[-122.42555,37.71452],[-122.42674,37.71122],[-122.42504,37.71054],[-122.42344,37.70938],[-122.42335,37.70925],[-122.42377,37.70834],[-122.42808,37.70843],[-122.43129,37.7083],[-122.45428,37.70826],[-122.44893,37.71007],[-122.44553,37.71189],[-122.4419,37.71531],[-122.43281,37.72732],[-122.42804,37.73202],[-122.42556,37.73158],[-122.42398,37.73155]]]]}},
{"type":"Feature","properties":{"id":"financial-district-south-beach","label":"Financial District / South Beach","nhood":"Financial District/South Beach"},"geometry":{"type":"MultiPolygon","coordinates":[[[[-122.38753,37.7828],[-122.38752,37.7828],[-122.38753,37.7828]]],[[[-122.38473,37.78292],[-122.38471,37.78278],[-122.38473,37.78293],[-122.38473,37.78292]]],[[[-122.38474,37.78293],[-122.38473,37.78293],[-122.38475,37.78294],[-122.38474,37.78293]]],[[[-122.38475,37.78294],[-122.38624,37.78286],[-122.38476,37.78294],[-122.38475,37.78294]]],[[[-122.40059,37.80602],[-122.40096,37.80356],[-122.40084,37.80343],[-122.40048,37.80347],[-122.39854,37.80461],[-122.39823,37.80425],[-122.39997,37.80323],[-122.3996,37.80281],[-122.39782,37.80381],[-122.39751,37.80349],[-122.39962,37.80228],[-122.39972,37.80218],[-122.39941,37.80182],[-122.3971,37.80302],[-122.39614,37.80196],[-122.39838,37.80067],[-122.39799,37.80023],[-122.39576,37.80147],[-122.39544,37.80116],[-122.39764,37.79985],[-122.39726,37.79944],[-122.3969,37.79963],[-122.39725,37.7994],[-122.39674,37.79883],[-122.39444,37.80018],[-122.39425,37.80007],[-122.39656,37.79871],[-122.39586,37.79787],[-122.39384,37.79894],[-122.39356,37.79866],[-122.39546,37.79755],[-122.39542,37.79739],[-122.39513,37.79749],[-122.395,37.79734],[-122.39517,37.79712],[-122.39321,37.79825],[-122.39292,37.79797],[-122.3948,37.79671],[-122.39468,37.79658],[-122.39317,37.79751],[-122.39309,37.79743],[-122.39413,37.79686],[-122.39374,37.79657],[-122.39388,37.79651],[-122.393,37.79556],[-122.39159,37.79621],[-122.3912,37.79578],[-122.39241,37.79482],[-122.39227,37.79467],[-122.39194,37.79485],[-122.39165,37.79455],[-122.39195,37.79434],[-122.39167,37.79405],[-122.39198,37.79387],[-122.39159,37.79353],[-122.39172,37.79343],[-122.38881,37.79098],[-122.38893,37.79088],[-122.38861,37.79031],[-122.38805,37.79051],[-122.38837,37.79031],[-122.38822,37.79],[-122.3857,37.79096],[-122.38552,37.79053],[-122.38761,37.78979],[-122.38735,37.78931],[-122.3853,37.78978],[-122.38515,37.78922],[-122.38719,37.78877],[-122.38705,37.78823],[-122.38526,37.78852],[-122.38513,37.78813],[-122.38738,37.78772],[-122.38741,37.78724],[-122.3845,37.78736],[-122.38436,37.78571],[-122.38758,37.78544],[-122.38763,37.78486],[-122.38546,37.78499],[-122.38541,37.78461],[-122.38767,37.7844],[-122.38771,37.78388],[-122.38629,37.78396],[-122.38624,37.78341],[-122.38775,37.78325],[-122.38778,37.78287],[-122.38763,37.78282],[-122.38807,37.78245],[-122.3881,37.78191],[-122.38939,37.78151],[-122.39275,37.77885],[-122.40047,37.78503],[-122.40271,37.78326],[-122.40583,37.78574],[-122.40734,37.78456],[-122.4077,37.7847],[-122.40879,37.79016],[-122.40715,37.79037],[-122.40754,37.79225],[-122.40442,37.79264],[-122.40461,37.79356],[-122.40015,37.79413],[-122.40086,37.79765],[-122.40204,37.79751],[-122.40316,37.8031],[-122.4048,37.8029],[-122.40517,37.80476],[-122.4035,37.80509],[-122.40227,37.80513],[-122.40059,37.80602]]]]}},
{"type":"Feature","properties":{"id":"glen-park","label":"Glen Park","nhood":"Glen Park"},"geometry":{"type":"MultiPolygon","coordinates":[[[[-122.4474,37.7466],[-122.44728,37.74606],[-122.44685,37.74612],[-122.44603,37.74513],[-122.44559,37.74391],[-122.44541,37.74377],[-122.4439,37.7433],[-122.44289,37.74384],[-122.44263,37.74435],[-122.44171,37.74463],[-122.44137,37.74491],[-122.44127,37.74523],[-122.44009,37.7453],[-122.43647,37.74289],[-122.4358,37.7421],[-122.43562,37.74153],[-122.43539,37.74192],[-122.43556,37.74316],[-122.43332,37.7433],[-122.43326,37.7419],[-122.43244,37.74177],[-122.42329,37.74229],[-122.42405,37.74063],[-122.42426,37.73993],[-122.42415,37.73987],[-122.42472,37.73843],[-122.4256,37.73732],[-122.42861,37.73506],[-122.43242,37.73318],[-122.43839,37.73442],[-122.44069,37.73507],[-122.44115,37.73571],[-122.4417,37.73595],[-122.4433,37.73568],[-122.44375,37.73586],[-122.44375,37.73636],[-122.44242,37.73744],[-122.44263,37.73831],[-122.4425,37.73924],[-122.4426,37.73955],[-122.44286,37.73977],[-122.44392,37.74009],[-122.44468,37.74079],[-122.4459,37.74112],[-122.4461,37.74136],[-122.44626,37.74207],[-122.44666,37.74244],[-122.44914,37.74283],[-122.44992,37.74327],[-122.45162,37.74553],[-122.45097,37.74587],[-122.4474,37.7466]]]]}},
{"type":"Feature","properties":{"id":"golden-gate-park","label":"Golden Gate Park","nhood":"Golden Gate Park"},"geometry":{"type":"MultiPolygon","coordinates":[[[[-122.44092,37.77363],[-122.44073,37.77271],[-122.4539,37.77105],[-122.45295,37.76637],[-122.45691,37.76587],[-122.45895,37.76626],[-122.4612,37.7662],[-122.4643,37.76596],[-122.51016,37.76408],[-122.51237,37.76359],[-122.51278,37.76436],[-122.51263,37.76563],[-122.51289,37.76696],[-122.51311,37.76724],[-122.51315,37.77076],[-122.51105,37.77134],[-122.46533,37.77342],[-122.45468,37.77476],[-122.45408,37.77193],[-122.44092,37.77363]]]]}},
{"type":"Feature","properties":{"id":"haight-ashbury","label":"Haight Ashbury","nhood":"Haight Ashbury"},"geometry":{"type":"MultiPolygon","coordinates":[[[[-122.43247,37.77376],[-122.43157,37.76931],[-122.43834,37.76901],[-122.43882,37.7684],[-122.44014,37.76776],[-122.4406,37.76696],[-122.44194,37.76595],[-122.44257,37.76593],[-122.44401,37.76502],[-122.444,37.7647],[-122.4443,37.76431],[-122.44466,37.76333],[-122.44569,37.76235],[-122.44639,37.76223],[-122.44638,37.76182],[-122.45196,37.76148],[-122.4539,37.77105],[-122.43247,37.77376]]]]}},
{"type":"Feature","properties":{"id":"hayes-valley","label":"Hayes Valley","nhood":"Hayes Valley"},"geometry":{"type":"MultiPolygon","coordinates":[[[[-122.41926,37.77515],[-122.42631,37.7696],[-122.43157,37.76931],[-122.43247,37.77376],[-122.44073,37.77271],[-122.44149,37.77644],[-122.42335,37.77875],[-122.42354,37.77967],[-122.42025,37.78007],[-122.41926,37.77515]]]]}},
{"type":"Feature","properties":{"id":"inner-richmond","label":"Inner Richmond","nhood":"Inner Richmond"},"geometry":{"type":"MultiPolygon","coordinates":[[[[-122.45948,37.78971],[-122.45837,37.77431],[-122.46533,37.77342],[-122.47176,37.77314],[-122.47259,37.78445],[-122.47263,37.78632],[-122.47235,37.78723],[-122.47091,37.78722],[-122.45948,37.78971]]]]}},
{"type":"Feature","properties":{"id":"inner-sunset","label":"Inner Sunset","nhood":"Inner Sunset"},"geometry":{"type":"MultiPolygon","coordinates":[[[[-122.45295,37.76637],[-122.45196,37.76148],[-122.44678,37.76178],[-122.44641,37.76109],[-122.4464,37.75886],[-122.4473,37.75789],[-122.44792,37.75759],[-122.4483,37.75803],[-122.44854,37.75904],[-122.45093,37.75872],[-122.45332,37.75782],[-122.45403,37.75718],[-122.45425,37.75635],[-122.45505,37.75512],[-122.45518,37.75434],[-122.45603,37.75289],[-122.45609,37.7518],[-122.45645,37.75148],[-122.45703,37.7514],[-122.45899,37.75195],[-122.46067,37.75181],[-122.46152,37.7515],[-122.46336,37.75304],[-122.46446,37.7529],[-122.46442,37.75232],[-122.46385,37.75198],[-122.46344,37.75119],[-122.46428,37.75098],[-122.46419,37.75072],[-122.4649,37.75101],[-122.46647,37.75094],[-122.46634,37.74907],[-122.47603,37.74865],[-122.47688,37.75972],[-122.47675,37.75995],[-122.47731,37.76545],[-122.45895,37.76626],[-122.45691,37.76587],[-122.45295,37.76637]]]]}},
{"type":"Feature","properties":{"id":"japantown","label":"Japantown","nhood":"Japantown"},"geometry":{"type":"MultiPolygon","coordinates":[[[[-122.42469,37.78534],[-122.4249,37.78544],[-122.43802,37.78377],[-122.43948,37.78331],[-122.44279,37.78289],[-122.44318,37.78483],[-122.42505,37.78713],[-122.42469,37.78534]]]]}},
{"type":"Feature","properties":{"id":"lakeshore","label":"Lakeshore","nhood":"Lakeshore"},"geometry":{"type":"MultiPolygon","coordinates":[[[[-122.50515,37.73556],[-122.50118,37.73534],[-122.50006,37.7349],[-122.4992,37.73431],[-122.49664,37.73377],[-122.49811,37.73227],[-122.49906,37.73158],[-122.498,37.73128],[-122.49723,37.72949],[-122.49636,37.72903],[-122.49569,37.72906],[-122.49347,37.7296],[-122.49331,37.72936],[-122.49227,37.72884],[-122.49144,37.72886],[-122.49101,37.72907],[-122.4899,37.73016],[-122.48921,37.73032],[-122.48655,37.72959],[-122.48618,37.73088],[-122.48193,37.73117],[-122.47486,37.73107],[-122.47463,37.72893],[-122.47473,37.72703],[-122.4749,37.72699],[-122.47474,37.72687],[-122.47505,37.72121],[-122.47534,37.72087],[-122.47522,37.72044],[-122.47534,37.72027],[-122.47523,37.71984],[-122.4749,37.71945],[-122.47257,37.71717],[-122.47263,37.71691],[-122.47134,37.71269],[-122.47122,37.70894],[-122.47132,37.70831],[-122.48488,37.70833],[-122.50278,37.70813],[-122.50361,37.71182],[-122.50399,37.71214],[-122.50442,37.71417],[-122.50604,37.71909],[-122.50612,37.72066],[-122.50652,37.72166],[-122.50766,37.72842],[-122.50805,37.72976],[-122.50818,37.73095],[-122.50801,37.73119],[-122.50803,37.73164],[-122.50841,37.73289],[-122.50825,37.73339],[-122.50827,37.73477],[-122.50854,37.7354],[-122.50537,37.73538],[-122.50515,37.73556]]]]}},
{"type":"Feature","properties":{"id":"lincoln-park","label":"Lincoln Park","nhood":"Lincoln Park"},"geometry":{"type":"MultiPolygon","coordinates":[[[[-122.49302,37.78774],[-122.49334,37.7874],[-122.49349,37.7835],[-122.49304,37.78165],[-122.50619,37.78103],[-122.50675,37.78077],[-122.50988,37.78063],[-122.51078,37.78206],[-122.51022,37.78203],[-122.50984,37.78219],[-122.50892,37.78201],[-122.50848,37.78228],[-122.50748,37.78219],[-122.50978,37.78403],[-122.50985,37.78479],[-122.50912,37.78559],[-122.50796,37.78617],[-122.50697,37.78745],[-122.50653,37.78748],[-122.50613,37.78786],[-122.50605,37.78819],[-122.5052,37.78826],[-122.5045,37.78806],[-122.50337,37.78802],[-122.50293,37.78816],[-122.5027,37.78804],[-122.50055,37.78832],[-122.50025,37.78857],[-122.49997,37.78844],[-122.49958,37.7887],[-122.49943,37.78846],[-122.49885,37.78841],[-122.49881,37.78823],[-122.49861,37.78833],[-122.4986,37.78816],[-122.49839,37.78816],[-122.49814,37.78788],[-122.49762,37.78795],[-122.49746,37.78759],[-122.49655,37.78729],[-122.4948,37.78783],[-122.4947,37.78814],[-122.49449,37.7878],[-122.49435,37.78789],[-122.494,37.78758],[-122.49302,37.78774]]]]}},
{"type":"Feature","properties":{"id":"lone-mountain-usf","label":"Lone Mountain / USF","nhood":"Lone Mountain/USF"},"geometry":{"type":"MultiPolygon","coordinates":[[[[-122.44269,37.78264],[-122.44151,37.7821],[-122.44096,37.77936],[-122.44205,37.77924],[-122.44092,37.77363],[-122.45408,37.77193],[-122.45468,37.77476],[-122.45837,37.77431],[-122.45886,37.78126],[-122.45873,37.78134],[-122.45552,37.78143],[-122.44737,37.78256],[-122.4473,37.78239],[-122.44279,37.78289],[-122.44269,37.78264]]]]}},
{"type":"Feature","properties":{"id":"marina","label":"Marina","nhood":"Marina"},"geometry":{"type":"MultiPolygon","coordinates":[[[[-122.42662,37.80889],[-122.42649,37.80765],[-122.42578,37.80672],[-122.42549,37.80601],[-122.42467,37.80143],[-122.42454,37.8013],[-122.42462,37.8012],[-122.42379,37.79762],[-122.42388,37.79751],[-122.4236,37.79669],[-122.43676,37.79502],[-122.43695,37.79595],[-122.44673,37.79471],[-122.44782,37.80163],[-122.44836,37.80159],[-122.4488,37.80177],[-122.44918,37.80207],[-122.44956,37.80279],[-122.44939,37.80371],[-122.44882,37.80423],[-122.44824,37.80448],[-122.44849,37.80609],[-122.44815,37.80635],[-122.44813,37.80689],[-122.44718,37.80748],[-122.44368,37.80772],[-122.44095,37.8082],[-122.44053,37.80836],[-122.44003,37.80883],[-122.43993,37.80878],[-122.4404,37.80815],[-122.44181,37.80799],[-122.44149,37.80794],[-122.4414,37.80783],[-122.44162,37.80791],[-122.44156,37.80781],[-122.44194,37.80788],[-122.44187,37.80777],[-122.44198,37.8079],[-122.44182,37.80798],[-122.44232,37.80793],[-122.44245,37.80779],[-122.44235,37.80784],[-122.44203,37.80787],[-122.44201,37.80773],[-122.44221,37.80783],[-122.44221,37.80768],[-122.44232,37.80782],[-122.44229,37.80767],[-122.44244,37.80777],[-122.44241,37.80764],[-122.44269,37.8076],[-122.44278,37.80781],[-122.44273,37.80753],[-122.44288,37.80752],[-122.44276,37.80755],[-122.44289,37.80757],[-122.44276,37.8076],[-122.4429,37.80779],[-122.44329,37.8077],[-122.44315,37.80768],[-122.44327,37.80762],[-122.44311,37.80743],[-122.44336,37.8074],[-122.44331,37.8077],[-122.44387,37.80744],[-122.44364,37.80742],[-122.44353,37.80732],[-122.44402,37.80732],[-122.44391,37.80719],[-122.44405,37.80731],[-122.44403,37.8072],[-122.44419,37.80728],[-122.44407,37.80715],[-122.44426,37.80726],[-122.44415,37.80713],[-122.44429,37.80725],[-122.44422,37.80711],[-122.44455,37.80718],[-122.44444,37.80705],[-122.44466,37.80717],[-122.44448,37.8073],[-122.44526,37.80707],[-122.44484,37.80699],[-122.44506,37.80692],[-122.44488,37.80683],[-122.44462,37.80686],[-122.44499,37.80679],[-122.44512,37.80693],[-122.44507,37.80678],[-122.44523,37.80699],[-122.44536,37.80696],[-122.44527,37.80672],[-122.44538,37.80695],[-122.44537,37.80669],[-122.44556,37.80689],[-122.44546,37.80666],[-122.44558,37.80689],[-122.44565,37.80673],[-122.4459,37.80682],[-122.44575,37.8069],[-122.44638,37.80672],[-122.44598,37.80678],[-122.4456,37.80663],[-122.44615,37.80671],[-122.44572,37.80654],[-122.44618,37.8067],[-122.44628,37.80667],[-122.446,37.8065],[-122.44631,37.80667],[-122.44642,37.80663],[-122.44617,37.80645],[-122.44644,37.80663],[-122.44655,37.80659],[-122.44641,37.80648],[-122.44694,37.80649],[-122.44673,37.80662],[-122.447,37.80653],[-122.44697,37.80643],[-122.44685,37.80644],[-122.44697,37.80638],[-122.44678,37.80639],[-122.44697,37.80632],[-122.44677,37.80634],[-122.44696,37.8063],[-122.4468,37.80623],[-122.44692,37.80611],[-122.44678,37.80611],[-122.44691,37.80606],[-122.4467,37.80607],[-122.4469,37.80601],[-122.44669,37.80602],[-122.44689,37.80598],[-122.44667,37.80592],[-122.44687,37.80588],[-122.44666,37.80582],[-122.44685,37.80575],[-122.44665,37.80577],[-122.44684,37.80573],[-122.44664,37.80572],[-122.44684,37.80568],[-122.44663,37.80567],[-122.44683,37.80563],[-122.44677,37.80541],[-122.44599,37.80551],[-122.44655,37.80553],[-122.4464,37.80569],[-122.44634,37.80556],[-122.44634,37.8057],[-122.44628,37.80556],[-122.44628,37.8057],[-122.44615,37.80558],[-122.44615,37.80572],[-122.44608,37.80559],[-122.44608,37.80573],[-122.44602,37.8056],[-122.44602,37.80574],[-122.44581,37.80562],[-122.44582,37.80576],[-122.44568,37.80564],[-122.44568,37.80578],[-122.44564,37.80565],[-122.44562,37.80579],[-122.44557,37.80566],[-122.44554,37.8058],[-122.44549,37.80567],[-122.4454,37.80581],[-122.44535,37.80568],[-122.44533,37.80581],[-122.44528,37.80569],[-122.44525,37.80582],[-122.4452,37.8057],[-122.44518,37.80583],[-122.44514,37.80571],[-122.44512,37.80584],[-122.44507,37.80572],[-122.44505,37.80585],[-122.445,37.80573],[-122.44492,37.80587],[-122.44487,37.80574],[-122.44486,37.80587],[-122.44481,37.80575],[-122.44479,37.80588],[-122.44475,37.80576],[-122.44473,37.80589],[-122.44468,37.80577],[-122.44466,37.8059],[-122.44462,37.80578],[-122.4446,37.80591],[-122.44455,37.80579],[-122.44453,37.8059],[-122.44448,37.80579],[-122.44446,37.80591],[-122.44441,37.8058],[-122.4444,37.80592],[-122.44435,37.80581],[-122.44434,37.80592],[-122.44429,37.80582],[-122.44428,37.80593],[-122.44423,37.80583],[-122.44421,37.80594],[-122.44378,37.80588],[-122.44377,37.806],[-122.44372,37.80589],[-122.44371,37.806],[-122.44365,37.8059],[-122.44365,37.80601],[-122.44359,37.80591],[-122.44359,37.80602],[-122.44354,37.80591],[-122.44353,37.80603],[-122.44347,37.80592],[-122.44347,37.80604],[-122.44341,37.80593],[-122.44341,37.80604],[-122.44337,37.80593],[-122.44336,37.80605],[-122.44331,37.80594],[-122.4433,37.80606],[-122.44325,37.80595],[-122.44324,37.80606],[-122.44319,37.80596],[-122.44318,37.80607],[-122.44313,37.80596],[-122.44307,37.80609],[-122.44264,37.80603],[-122.44263,37.80614],[-122.44255,37.80602],[-122.44302,37.80589],[-122.44252,37.80595],[-122.44259,37.80658],[-122.44313,37.80651],[-122.44261,37.80649],[-122.44265,37.80636],[-122.44269,37.80647],[-122.44287,37.80634],[-122.44322,37.80641],[-122.44321,37.8063],[-122.44333,37.8064],[-122.44333,37.80629],[-122.44368,37.80637],[-122.44367,37.80625],[-122.4438,37.80635],[-122.44379,37.80624],[-122.44403,37.80633],[-122.44404,37.80622],[-122.44408,37.80632],[-122.44417,37.8062],[-122.4442,37.80631],[-122.44428,37.80618],[-122.44432,37.80629],[-122.4444,37.80617],[-122.44444,37.80628],[-122.44453,37.80615],[-122.44457,37.80626],[-122.44555,37.80606],[-122.44559,37.80623],[-122.44452,37.80629],[-122.44451,37.80641],[-122.44439,37.8063],[-122.44438,37.80643],[-122.44433,37.80631],[-122.44432,37.80644],[-122.44426,37.80632],[-122.44425,37.80645],[-122.44413,37.80634],[-122.44413,37.80646],[-122.44395,37.80636],[-122.44413,37.80651],[-122.444,37.80655],[-122.44416,37.80672],[-122.44404,37.80676],[-122.44418,37.80678],[-122.4439,37.80681],[-122.44398,37.80659],[-122.44386,37.80658],[-122.44397,37.80656],[-122.44385,37.80654],[-122.44397,37.80648],[-122.44386,37.80647],[-122.44358,37.80655],[-122.44364,37.80686],[-122.44362,37.80694],[-122.44287,37.80714],[-122.44283,37.80699],[-122.44361,37.80686],[-122.44357,37.80664],[-122.44262,37.80685],[-122.44254,37.80677],[-122.4429,37.80672],[-122.44288,37.80665],[-122.44255,37.80672],[-122.44247,37.80713],[-122.44226,37.80677],[-122.44233,37.80719],[-122.44258,37.80718],[-122.44232,37.80722],[-122.4423,37.80712],[-122.44221,37.80725],[-122.44222,37.80714],[-122.44214,37.80726],[-122.44214,37.80715],[-122.44207,37.80728],[-122.44207,37.80717],[-122.44099,37.80747],[-122.44096,37.80731],[-122.44229,37.8071],[-122.44224,37.80684],[-122.43583,37.80757],[-122.43586,37.80769],[-122.43392,37.80795],[-122.43381,37.80791],[-122.43365,37.80818],[-122.43291,37.80793],[-122.43364,37.80817],[-122.43376,37.80787],[-122.43393,37.80793],[-122.43584,37.80768],[-122.43392,37.8079],[-122.43389,37.80779],[-122.43583,37.80765],[-122.43566,37.80726],[-122.4336,37.80762],[-122.43356,37.80743],[-122.43566,37.80725],[-122.43558,37.8069],[-122.43308,37.80731],[-122.43304,37.80713],[-122.43442,37.80704],[-122.43415,37.80696],[-122.43405,37.80673],[-122.43293,37.80695],[-122.4329,37.8068],[-122.43405,37.80672],[-122.43399,37.80643],[-122.43287,37.80665],[-122.43284,37.80649],[-122.43399,37.80642],[-122.43394,37.80613],[-122.43281,37.80634],[-122.43277,37.80618],[-122.43394,37.80612],[-122.43387,37.80582],[-122.43279,37.80603],[-122.43276,37.80589],[-122.43387,37.80581],[-122.43356,37.80559],[-122.43273,37.80572],[-122.43239,37.80597],[-122.43264,37.80588],[-122.43239,37.80607],[-122.43252,37.80609],[-122.4324,37.80611],[-122.43252,37.80658],[-122.4323,37.80608],[-122.43237,37.80597],[-122.43217,37.80608],[-122.43261,37.80851],[-122.43234,37.80851],[-122.43208,37.80722],[-122.43139,37.80731],[-122.43173,37.80902],[-122.43134,37.80906],[-122.43092,37.80732],[-122.4303,37.80746],[-122.43062,37.80917],[-122.43011,37.80922],[-122.42984,37.80783],[-122.42926,37.8079],[-122.42824,37.80841],[-122.427,37.80811],[-122.42755,37.80864],[-122.42801,37.80857],[-122.42804,37.8087],[-122.42753,37.80878],[-122.4273,37.80877],[-122.42749,37.80868],[-122.42691,37.80815],[-122.42672,37.80817],[-122.42685,37.80902],[-122.42675,37.80943],[-122.4267,37.80957],[-122.42663,37.80974],[-122.42649,37.80957],[-122.42662,37.80889]]],[[[-122.42653,37.8099],[-122.42662,37.80975],[-122.42657,37.80984],[-122.42653,37.8099]]],[[[-122.42628,37.81021],[-122.42652,37.80991],[-122.42622,37.81027],[-122.42628,37.81021]]],[[[-122.42622,37.81027]]],[[[-122.42601,37.81044],[-122.42615,37.81034],[-122.42608,37.81039],[-122.42601,37.81044]]],[[[-122.42587,37.81052],[-122.426,37.81045],[-122.42574,37.81059],[-122.42587,37.81052]]],[[[-122.42557,37.81066],[-122.42573,37.81059],[-122.42565,37.81063],[-122.42557,37.81066]]],[[[-122.42538,37.81072],[-122.42556,37.81066],[-122.42523,37.81075],[-122.42538,37.81072]]],[[[-122.42506,37.81078],[-122.42521,37.81076],[-122.42513,37.81077],[-122.42506,37.81078]]],[[[-122.4249,37.81079],[-122.42506,37.81078],[-122.42496,37.81079],[-122.4249,37.81079]]]]}},
{"type":"Feature","properties":{"id":"mclaren-park","label":"McLaren Park","nhood":"McLaren Park"},"geometry":{"type":"MultiPolygon","coordinates":[[[[-122.40667,37.71921],[-122.40727,37.71782],[-122.40826,37.71809],[-122.40862,37.71712],[-122.40784,37.71692],[-122.40817,37.71616],[-122.40895,37.71646],[-122.41036,37.71669],[-122.41132,37.71437],[-122.41566,37.71549],[-122.41605,37.71501],[-122.41621,37.71453],[-122.41595,37.71382],[-122.41529,37.7135],[-122.41563,37.71273],[-122.42033,37.71397],[-122.42091,37.71377],[-122.42123,37.71331],[-122.42147,37.7122],[-122.42196,37.71202],[-122.42241,37.71097],[-122.42303,37.71038],[-122.42455,37.7101],[-122.42551,37.71079],[-122.42674,37.71122],[-122.42555,37.71452],[-122.42731,37.71507],[-122.42719,37.71575],[-122.42667,37.71708],[-122.42639,37.71856],[-122.42583,37.7193],[-122.42548,37.72023],[-122.42455,37.72165],[-122.42485,37.72205],[-122.42381,37.72369],[-122.41987,37.72471],[-122.41938,37.7235],[-122.41839,37.72377],[-122.41791,37.72263],[-122.41692,37.72282],[-122.41663,37.72216],[-122.41556,37.72223],[-122.41592,37.72309],[-122.41297,37.72386],[-122.41099,37.71907],[-122.40809,37.71983],[-122.40798,37.71974],[-122.40796,37.71986],[-122.4071,37.72009],[-122.40667,37.71921]]]]}},
{"type":"Feature","properties":{"id":"mission","label":"Mission","nhood":"Mission"},"geometry":{"type":"MultiPolygon","coordinates":[[[[-122.41096,37.76943],[-122.40974,37.77035],[-122.40844,37.76932],[-122.40801,37.76924],[-122.407,37.77005],[-122.40621,37.76946],[-122.40594,37.76966],[-122.40499,37.76971],[-122.4045,37.76466],[-122.40509,37.76463],[-122.4052,37.76348],[-122.40628,37.76139],[-122.40649,37.76025],[-122.40626,37.75945],[-122.4059,37.75893],[-122.40377,37.75714],[-122.40331,37.75617],[-122.40298,37.75275],[-122.40336,37.75135],[-122.40331,37.75089],[-122.40378,37.74943],[-122.40631,37.74894],[-122.40788,37.74841],[-122.4213,37.74814],[-122.42477,37.74783],[-122.42671,37.76898],[-122.42695,37.76918],[-122.4187,37.77564],[-122.41096,37.76943]]]]}},
{"type":"Feature","properties":{"id":"mission-bay","label":"Mission Bay","nhood":"Mission Bay"},"geometry":{"type":"MultiPolygon","coordinates":[[[[-122.38473,37.78293],[-122.38471,37.78253],[-122.38779,37.78227],[-122.38775,37.7818],[-122.38556,37.78194],[-122.38551,37.78178],[-122.38486,37.7818],[-122.38551,37.78174],[-122.38552,37.78158],[-122.38763,37.78145],[-122.38758,37.78096],[-122.38748,37.7811],[-122.38735,37.78098],[-122.38735,37.78111],[-122.38731,37.78098],[-122.3872,37.78112],[-122.38718,37.78099],[-122.38708,37.78113],[-122.38695,37.781],[-122.38693,37.78113],[-122.38691,37.781],[-122.38681,37.78114],[-122.38669,37.78102],[-122.38669,37.78115],[-122.38665,37.78102],[-122.38654,37.78116],[-122.38642,37.78103],[-122.38641,37.78116],[-122.38638,37.78103],[-122.38629,37.78117],[-122.38616,37.78105],[-122.38614,37.78118],[-122.38603,37.78105],[-122.38601,37.78119],[-122.38599,37.78106],[-122.38587,37.78119],[-122.38585,37.78106],[-122.38577,37.7812],[-122.38563,37.78108],[-122.38563,37.78121],[-122.38559,37.78108],[-122.3855,37.78122],[-122.38536,37.78109],[-122.38535,37.78122],[-122.38532,37.78109],[-122.38521,37.78123],[-122.3851,37.78111],[-122.3851,37.78124],[-122.38506,37.78111],[-122.38495,37.78125],[-122.38483,37.78112],[-122.38482,37.78125],[-122.38479,37.78098],[-122.38483,37.7811],[-122.38494,37.78097],[-122.38496,37.7811],[-122.38506,37.78096],[-122.38509,37.78109],[-122.38519,37.78096],[-122.38523,37.78108],[-122.38532,37.78095],[-122.38536,37.78107],[-122.38546,37.78094],[-122.3855,37.78106],[-122.38559,37.78093],[-122.38563,37.78106],[-122.38572,37.78093],[-122.38576,37.78105],[-122.38585,37.78092],[-122.38589,37.78104],[-122.38599,37.78091],[-122.38603,37.78103],[-122.38612,37.7809],[-122.38615,37.78103],[-122.38625,37.7809],[-122.38629,37.78102],[-122.38638,37.78089],[-122.38642,37.78101],[-122.38651,37.78088],[-122.38655,37.781],[-122.38664,37.78087],[-122.38668,37.781],[-122.38678,37.78087],[-122.38682,37.78099],[-122.38691,37.78086],[-122.38694,37.78098],[-122.38704,37.78085],[-122.38708,37.78097],[-122.38717,37.78084],[-122.38721,37.78097],[-122.38731,37.78084],[-122.38734,37.78096],[-122.38744,37.78083],[-122.38758,37.78095],[-122.38753,37.78049],[-122.38733,37.78061],[-122.38697,37.78052],[-122.38695,37.78063],[-122.38693,37.78052],[-122.38684,37.78064],[-122.38682,37.78053],[-122.38672,37.78065],[-122.3865,37.78055],[-122.3865,37.78066],[-122.38638,37.78055],[-122.38637,37.78067],[-122.38614,37.78057],[-122.38613,37.78068],[-122.38611,37.78057],[-122.38602,37.78069],[-122.38599,37.78058],[-122.38589,37.7807],[-122.38587,37.78058],[-122.38577,37.7807],[-122.38556,37.7806],[-122.38554,37.78072],[-122.38552,37.7806],[-122.3853,37.78073],[-122.38528,37.78062],[-122.38507,37.78074],[-122.38485,37.78064],[-122.38482,37.78076],[-122.3848,37.78053],[-122.38753,37.78047],[-122.38749,37.78005],[-122.38739,37.78017],[-122.38737,37.78006],[-122.38715,37.78018],[-122.38704,37.78007],[-122.38703,37.78019],[-122.38701,37.78008],[-122.38692,37.78019],[-122.38658,37.7801],[-122.38656,37.78021],[-122.38654,37.7801],[-122.38646,37.78022],[-122.38623,37.78012],[-122.38622,37.78023],[-122.38619,37.78012],[-122.3861,37.78024],[-122.38574,37.78015],[-122.38574,37.78026],[-122.38571,37.78015],[-122.38563,37.78027],[-122.38539,37.78017],[-122.38539,37.78028],[-122.38515,37.78018],[-122.38514,37.78029],[-122.38512,37.78018],[-122.38492,37.78031],[-122.3848,37.7802],[-122.38478,37.78031],[-122.38476,37.78008],[-122.38749,37.78003],[-122.38745,37.77966],[-122.38478,37.7799],[-122.38476,37.77969],[-122.38745,37.77963],[-122.38742,37.77929],[-122.38475,37.77954],[-122.38473,37.77933],[-122.38742,37.77927],[-122.3874,37.77894],[-122.38478,37.77916],[-122.38477,37.77898],[-122.38738,37.77891],[-122.38735,37.77861],[-122.38513,37.77882],[-122.38511,37.77863],[-122.38735,37.77859],[-122.38734,37.77836],[-122.38529,37.77845],[-122.38769,37.77834],[-122.38762,37.77821],[-122.39041,37.77714],[-122.38986,37.7765],[-122.3876,37.77675],[-122.38735,37.77663],[-122.38731,37.77632],[-122.3871,37.77633],[-122.38708,37.7761],[-122.38499,37.77632],[-122.38488,37.77533],[-122.387,37.77508],[-122.38692,37.77433],[-122.38181,37.77462],[-122.38146,37.77192],[-122.38473,37.77336],[-122.38676,37.77327],[-122.38657,37.77284],[-122.38672,37.77277],[-122.38671,37.77244],[-122.38644,37.77194],[-122.38638,37.77146],[-122.38601,37.77119],[-122.38584,37.77069],[-122.38555,37.77215],[-122.38568,37.77144],[-122.38529,37.77163],[-122.38572,37.77059],[-122.38316,37.76971],[-122.38338,37.76933],[-122.38557,37.77018],[-122.38502,37.76886],[-122.38489,37.76888],[-122.38479,37.76866],[-122.38501,37.76859],[-122.38515,37.76814],[-122.38388,37.76812],[-122.38384,37.76775],[-122.38246,37.76783],[-122.38244,37.76769],[-122.3849,37.76754],[-122.38487,37.76724],[-122.38582,37.76726],[-122.38662,37.76567],[-122.38761,37.76448],[-122.38792,37.76438],[-122.38816,37.76696],[-122.39397,37.76661],[-122.39385,37.76531],[-122.4045,37.76466],[-122.40499,37.76971],[-122.40439,37.76975],[-122.40388,37.77006],[-122.39943,37.77357],[-122.40098,37.77481],[-122.39876,37.77657],[-122.39721,37.77533],[-122.38939,37.78151],[-122.3881,37.78191],[-122.38807,37.78245],[-122.38763,37.78282],[-122.38473,37.78293]]],[[[-122.38432,37.77893],[-122.38518,37.77818],[-122.38425,37.7791],[-122.38449,37.78203],[-122.38422,37.77915],[-122.38432,37.77893]]]]}},
{"type":"Feature","properties":{"id":"nob-hill","label":"Nob Hill","nhood":"Nob Hill"},"geometry":{"type":"MultiPolygon","coordinates":[[[[-122.41228,37.7991],[-122.41136,37.79453],[-122.40972,37.79474],[-122.40917,37.79204],[-122.40754,37.79225],[-122.40715,37.79037],[-122.40879,37.79016],[-122.4084,37.78829],[-122.42169,37.78669],[-122.42176,37.78755],[-122.42222,37.78931],[-122.42213,37.78941],[-122.4226,37.79118],[-122.42252,37.79129],[-122.42278,37.79207],[-122.42269,37.79217],[-122.41611,37.79301],[-122.41722,37.79847],[-122.41228,37.7991]]]]}},
{"type":"Feature","properties":{"id":"noe-valley","label":"Noe Valley","nhood":"Noe Valley"},"geometry":{"type":"MultiPolygon","coordinates":[[[[-122.42553,37.75655],[-122.42477,37.74875],[-122.42492,37.74851],[-122.42486,37.74794],[-122.42477,37.74783],[-122.42139,37.74812],[-122.42133,37.74744],[-122.42192,37.74583],[-122.42228,37.74548],[-122.42329,37.74229],[-122.43244,37.74177],[-122.43326,37.7419],[-122.43332,37.7433],[-122.43556,37.74316],[-122.43539,37.74192],[-122.43562,37.74153],[-122.4358,37.7421],[-122.43647,37.74289],[-122.44009,37.7453],[-122.44127,37.74523],[-122.44137,37.74491],[-122.44171,37.74463],[-122.44263,37.74435],[-122.44289,37.74384],[-122.44415,37.7433],[-122.44559,37.74391],[-122.44603,37.74513],[-122.44685,37.74612],[-122.44728,37.74606],[-122.4474,37.7466],[-122.44505,37.74702],[-122.44456,37.74669],[-122.44482,37.74697],[-122.44443,37.74717],[-122.44417,37.74756],[-122.44427,37.74838],[-122.44355,37.74944],[-122.44285,37.75237],[-122.44253,37.75238],[-122.44249,37.75261],[-122.44131,37.75388],[-122.44035,37.75523],[-122.43777,37.75554],[-122.4378,37.75589],[-122.42553,37.75655]]]]}},
{"type":"Feature","properties":{"id":"north-beach","label":"North Beach","nhood":"North Beach"},"geometry":{"type":"MultiPolygon","coordinates":[[[[-122.4116,37.81059],[-122.41154,37.81044],[-122.41162,37.81058],[-122.4116,37.81059]]],[[[-122.41178,37.81062],[-122.41177,37.81057],[-122.41179,37.81061],[-122.41178,37.81062]]],[[[-122.41144,37.81065],[-122.41138,37.8105],[-122.41146,37.81064],[-122.41144,37.81065]]],[[[-122.41169,37.81065],[-122.41169,37.8106],[-122.41171,37.81064],[-122.41169,37.81065]]],[[[-122.41161,37.81068],[-122.4116,37.81063],[-122.41162,37.81067],[-122.41161,37.81068]]],[[[-122.41193,37.81068],[-122.41189,37.81058],[-122.41194,37.81068],[-122.41193,37.81068]]],[[[-122.41153,37.8107],[-122.41152,37.81066],[-122.41154,37.8107],[-122.41153,37.8107]]],[[[-122.41184,37.81072],[-122.4118,37.81062],[-122.41186,37.81072],[-122.41184,37.81072]]],[[[-122.41144,37.81073],[-122.41144,37.81069],[-122.41146,37.81073],[-122.41144,37.81073]]],[[[-122.41177,37.81078],[-122.41171,37.81065],[-122.41179,37.81077],[-122.41177,37.81078]]],[[[-122.41168,37.81081],[-122.41163,37.81068],[-122.4117,37.8108],[-122.41168,37.81081]]],[[[-122.4116,37.81083],[-122.41155,37.8107],[-122.41162,37.81083],[-122.4116,37.81083]]],[[[-122.41152,37.81086],[-122.41146,37.81073],[-122.41153,37.81086],[-122.41152,37.81086]]],[[[-122.41143,37.81089],[-122.41139,37.81078],[-122.41145,37.81089],[-122.41143,37.81089]]],[[[-122.41992,37.81157],[-122.41972,37.81113],[-122.41899,37.81084],[-122.41905,37.81109],[-122.41947,37.81138],[-122.41885,37.81147],[-122.41535,37.80916],[-122.41515,37.80923],[-122.41537,37.80941],[-122.41504,37.80919],[-122.41489,37.80924],[-122.41518,37.80948],[-122.41478,37.80928],[-122.41529,37.80984],[-122.41342,37.80924],[-122.41428,37.80995],[-122.41403,37.81014],[-122.41386,37.80985],[-122.41262,37.80908],[-122.41238,37.80917],[-122.41257,37.80943],[-122.41237,37.80918],[-122.4121,37.80928],[-122.41225,37.8096],[-122.412,37.80933],[-122.41189,37.80939],[-122.41286,37.81052],[-122.41151,37.81124],[-122.41269,37.81056],[-122.41125,37.80892],[-122.41109,37.80891],[-122.41126,37.80915],[-122.41103,37.80889],[-122.41055,37.80882],[-122.41044,37.80933],[-122.41049,37.80881],[-122.4104,37.80931],[-122.41063,37.80972],[-122.41063,37.80955],[-122.41073,37.80967],[-122.41092,37.80948],[-122.41102,37.80957],[-122.41099,37.80946],[-122.41109,37.80954],[-122.41106,37.80943],[-122.41119,37.80968],[-122.4111,37.80957],[-122.41103,37.80974],[-122.41091,37.80963],[-122.41096,37.80976],[-122.41084,37.80966],[-122.41088,37.80979],[-122.41077,37.80968],[-122.41081,37.80982],[-122.41064,37.80973],[-122.4109,37.81019],[-122.4109,37.81003],[-122.411,37.81014],[-122.41099,37.81],[-122.41107,37.81012],[-122.41113,37.80995],[-122.41122,37.81006],[-122.41121,37.80992],[-122.41129,37.81004],[-122.41127,37.8099],[-122.41137,37.81001],[-122.41143,37.80984],[-122.41151,37.80996],[-122.41149,37.80982],[-122.41169,37.80989],[-122.41163,37.80977],[-122.41176,37.80987],[-122.41171,37.80974],[-122.41188,37.81003],[-122.41177,37.80989],[-122.4118,37.81006],[-122.41169,37.80992],[-122.41173,37.81008],[-122.41162,37.80994],[-122.41164,37.81011],[-122.41153,37.80997],[-122.41157,37.81014],[-122.41146,37.81],[-122.41149,37.81017],[-122.41138,37.81003],[-122.41141,37.8102],[-122.4113,37.81006],[-122.41133,37.81023],[-122.41122,37.81009],[-122.41126,37.81025],[-122.41115,37.81011],[-122.41118,37.81028],[-122.41107,37.81014],[-122.4111,37.81031],[-122.41091,37.8102],[-122.41122,37.81075],[-122.41122,37.81056],[-122.41133,37.8107],[-122.41129,37.81053],[-122.41139,37.81067],[-122.41152,37.81063],[-122.41145,37.81048],[-122.41156,37.81062],[-122.41168,37.81056],[-122.4116,37.81042],[-122.41171,37.81056],[-122.41178,37.81036],[-122.41192,37.81049],[-122.41192,37.81031],[-122.41195,37.81048],[-122.41207,37.81043],[-122.41201,37.81028],[-122.41212,37.81046],[-122.41122,37.81076],[-122.41125,37.81112],[-122.41015,37.81151],[-122.40851,37.81128],[-122.40758,37.80879],[-122.40853,37.81127],[-122.41015,37.81149],[-122.41041,37.8114],[-122.41003,37.81142],[-122.40857,37.81122],[-122.4086,37.81107],[-122.4086,37.8112],[-122.40868,37.81108],[-122.40868,37.81121],[-122.40876,37.81109],[-122.40876,37.81123],[-122.40884,37.8111],[-122.40884,37.81124],[-122.40892,37.81111],[-122.40892,37.81125],[-122.40901,37.81112],[-122.40901,37.81126],[-122.40908,37.81113],[-122.40908,37.81127],[-122.40917,37.81114],[-122.40917,37.81128],[-122.40925,37.81116],[-122.40925,37.81129],[-122.40932,37.81117],[-122.40932,37.8113],[-122.40941,37.81118],[-122.40941,37.81132],[-122.40948,37.81119],[-122.40948,37.81133],[-122.40957,37.8112],[-122.40957,37.81134],[-122.40965,37.81121],[-122.40965,37.81135],[-122.40973,37.81122],[-122.40973,37.81136],[-122.40981,37.81123],[-122.40981,37.81137],[-122.40989,37.81125],[-122.40989,37.81138],[-122.41006,37.81124],[-122.41019,37.81132],[-122.41005,37.81087],[-122.40983,37.81098],[-122.40981,37.81084],[-122.40975,37.81097],[-122.40972,37.81082],[-122.40967,37.81095],[-122.40965,37.81081],[-122.40959,37.81094],[-122.40956,37.8108],[-122.40951,37.81093],[-122.40948,37.81079],[-122.40943,37.81092],[-122.4094,37.81078],[-122.40934,37.81091],[-122.40932,37.81077],[-122.40926,37.8109],[-122.40923,37.81076],[-122.40918,37.81089],[-122.40915,37.81075],[-122.4091,37.81088],[-122.40907,37.81073],[-122.40902,37.81086],[-122.40899,37.81072],[-122.40894,37.81085],[-122.40891,37.81071],[-122.40885,37.81084],[-122.40883,37.8107],[-122.40877,37.81083],[-122.40874,37.81069],[-122.40869,37.81082],[-122.40866,37.81068],[-122.40861,37.81081],[-122.40856,37.81066],[-122.40859,37.81051],[-122.40859,37.81065],[-122.40867,37.81052],[-122.40867,37.81066],[-122.40883,37.81055],[-122.40888,37.81069],[-122.40892,37.81056],[-122.40904,37.81071],[-122.4091,37.81058],[-122.40908,37.81072],[-122.40916,37.81059],[-122.40916,37.81073],[-122.40932,37.81061],[-122.40932,37.81075],[-122.4095,37.81064],[-122.40953,37.81078],[-122.40958,37.81065],[-122.40961,37.81079],[-122.40965,37.81066],[-122.40973,37.81081],[-122.40999,37.81071],[-122.41005,37.81086],[-122.41013,37.81036],[-122.40985,37.81044],[-122.40983,37.81032],[-122.40978,37.81043],[-122.40976,37.81031],[-122.40971,37.81042],[-122.40969,37.8103],[-122.40964,37.81041],[-122.40962,37.81029],[-122.40957,37.81041],[-122.40954,37.81028],[-122.40949,37.8104],[-122.40947,37.81027],[-122.40942,37.81039],[-122.4094,37.81026],[-122.40935,37.81038],[-122.40932,37.81025],[-122.40929,37.81037],[-122.40925,37.81024],[-122.4092,37.81036],[-122.40918,37.81023],[-122.40913,37.81035],[-122.40911,37.81022],[-122.40906,37.81034],[-122.40903,37.81021],[-122.40898,37.81033],[-122.40896,37.8102],[-122.40891,37.81032],[-122.40889,37.81019],[-122.40884,37.81031],[-122.40882,37.81018],[-122.40877,37.8103],[-122.40874,37.81017],[-122.40869,37.81029],[-122.40867,37.81016],[-122.40862,37.81028],[-122.4086,37.81015],[-122.40855,37.81027],[-122.40852,37.81014],[-122.40847,37.81026],[-122.40845,37.81013],[-122.4084,37.81025],[-122.40836,37.81012],[-122.40838,37.81],[-122.40838,37.81011],[-122.4085,37.81001],[-122.4085,37.81012],[-122.40892,37.81007],[-122.40919,37.81021],[-122.40923,37.81011],[-122.40925,37.81022],[-122.40928,37.81012],[-122.40934,37.81023],[-122.40959,37.81016],[-122.40958,37.81027],[-122.41012,37.81023],[-122.41013,37.81035],[-122.41008,37.80992],[-122.40978,37.80999],[-122.40977,37.80988],[-122.40947,37.80995],[-122.40947,37.80984],[-122.40933,37.80993],[-122.40934,37.80982],[-122.40922,37.80992],[-122.40901,37.80978],[-122.40898,37.80989],[-122.40898,37.80978],[-122.4086,37.80984],[-122.4086,37.80973],[-122.40842,37.80982],[-122.40827,37.80968],[-122.40822,37.80979],[-122.40826,37.80956],[-122.41006,37.80989],[-122.40979,37.80941],[-122.40978,37.80959],[-122.40804,37.80926],[-122.40806,37.80915],[-122.40963,37.80946],[-122.40978,37.8094],[-122.40965,37.80909],[-122.40787,37.80885],[-122.40789,37.80874],[-122.40956,37.80905],[-122.40939,37.80872],[-122.40899,37.80869],[-122.40901,37.80859],[-122.40894,37.80869],[-122.40895,37.80857],[-122.40888,37.80867],[-122.40889,37.80856],[-122.40882,37.80865],[-122.40884,37.80854],[-122.40875,37.80864],[-122.40877,37.80852],[-122.40868,37.80862],[-122.4087,37.8085],[-122.40861,37.8086],[-122.40863,37.80848],[-122.40855,37.80858],[-122.40856,37.80846],[-122.40848,37.80857],[-122.40849,37.80844],[-122.4084,37.80855],[-122.40842,37.80841],[-122.40833,37.80853],[-122.40834,37.80839],[-122.40825,37.80851],[-122.40823,37.80828],[-122.40807,37.80847],[-122.40817,37.80826],[-122.40805,37.8082],[-122.40789,37.80842],[-122.40793,37.80815],[-122.40779,37.80839],[-122.40791,37.80811],[-122.40786,37.80809],[-122.40761,37.8084],[-122.40749,37.80793],[-122.40735,37.80805],[-122.40664,37.80782],[-122.40682,37.81],[-122.40618,37.81007],[-122.4059,37.80716],[-122.40532,37.80687],[-122.40436,37.80887],[-122.40391,37.80872],[-122.40472,37.80697],[-122.40396,37.80658],[-122.40276,37.80801],[-122.40235,37.80783],[-122.40342,37.80647],[-122.4028,37.80602],[-122.40094,37.80764],[-122.4004,37.80726],[-122.40059,37.80602],[-122.40179,37.80531],[-122.40227,37.80513],[-122.4035,37.80509],[-122.40517,37.80476],[-122.4048,37.8029],[-122.40316,37.8031],[-122.40204,37.79751],[-122.40551,37.79707],[-122.41682,37.80489],[-122.41689,37.80521],[-122.41723,37.80517],[-122.41838,37.80598],[-122.41872,37.80593],[-122.41922,37.80845],[-122.41789,37.80862],[-122.41792,37.80882],[-122.41893,37.80876],[-122.41893,37.80888],[-122.41995,37.8089],[-122.41994,37.80913],[-122.41831,37.80914],[-122.41893,37.80945],[-122.4179,37.80903],[-122.41799,37.80884],[-122.41784,37.80883],[-122.41781,37.80865],[-122.41749,37.80858],[-122.41765,37.80829],[-122.41738,37.80833],[-122.41734,37.80814],[-122.41635,37.80826],[-122.41634,37.80848],[-122.41718,37.80853],[-122.41615,37.8085],[-122.41619,37.80885],[-122.41743,37.80893],[-122.41741,37.80917],[-122.4206,37.81127],[-122.42035,37.81151],[-122.41985,37.81132],[-122.41992,37.81157]]],[[[-122.42057,37.81194],[-122.42081,37.81185],[-122.4198,37.81199],[-122.42057,37.81194]]]]}},
{"type":"Feature","properties":{"id":"oceanview-merced-ingleside","label":"Oceanview / Merced / Ingleside","nhood":"Oceanview/Merced/Ingleside"},"geometry":{"type":"MultiPolygon","coordinates":[[[[-122.4621,37.72527],[-122.45233,37.72308],[-122.44788,37.723],[-122.44869,37.7176],[-122.44921,37.71631],[-122.45023,37.71513],[-122.45295,37.71277],[-122.4545,37.71163],[-122.4556,37.71108],[-122.45731,37.71065],[-122.46477,37.71048],[-122.46599,37.71015],[-122.46716,37.70963],[-122.46894,37.70823],[-122.47132,37.70831],[-122.47122,37.70894],[-122.47134,37.71269],[-122.47263,37.71691],[-122.47245,37.72145],[-122.47232,37.72162],[-122.47176,37.72167],[-122.46227,37.7217],[-122.46228,37.72515],[-122.4621,37.72527]]]]}},
{"type":"Feature","properties":{"id":"outer-mission","label":"Outer Mission","nhood":"Outer Mission"},"geometry":{"type":"MultiPolygon","coordinates":[[[[-122.44553,37.71189],[-122.44893,37.71007],[-122.45428,37.70826],[-122.45398,37.70823],[-122.46358,37.70833],[-122.46467,37.70821],[-122.46894,37.70823],[-122.46716,37.70963],[-122.46599,37.71015],[-122.46477,37.71048],[-122.45731,37.71065],[-122.45503,37.71132],[-122.45387,37.71204],[-122.45228,37.71334],[-122.45023,37.71513],[-122.44921,37.71631],[-122.44869,37.7176],[-122.44812,37.722],[-122.44753,37.72401],[-122.44631,37.72598],[-122.44442,37.7278],[-122.44307,37.72863],[-122.43948,37.73011],[-122.43956,37.73019],[-122.43589,37.73158],[-122.42857,37.73508],[-122.42611,37.73395],[-122.43281,37.72732],[-122.4419,37.71531],[-122.44553,37.71189]]]]}},
{"type":"Feature","properties":{"id":"outer-richmond","label":"Outer Richmond","nhood":"Outer Richmond"},"geometry":{"type":"MultiPolygon","coordinates":[[[[-122.47263,37.78632],[-122.47176,37.77314],[-122.51105,37.77134],[-122.51315,37.77076],[-122.51312,37.77599],[-122.51335,37.77733],[-122.51351,37.7776],[-122.51397,37.77774],[-122.51463,37.77851],[-122.51449,37.77924],[-122.51495,37.77972],[-122.51457,37.7799],[-122.51447,37.78043],[-122.51472,37.78113],[-122.51459,37.7813],[-122.51429,37.78128],[-122.51424,37.78146],[-122.51376,37.78148],[-122.51388,37.78161],[-122.51347,37.78219],[-122.51359,37.7824],[-122.5135,37.7827],[-122.5131,37.78277],[-122.51303,37.7832],[-122.51247,37.78374],[-122.51271,37.78393],[-122.51268,37.78412],[-122.51211,37.78379],[-122.51192,37.78395],[-122.51191,37.78433],[-122.5113,37.78428],[-122.51123,37.78459],[-122.51102,37.78449],[-122.51075,37.78467],[-122.50985,37.78479],[-122.50978,37.78403],[-122.50748,37.78219],[-122.50848,37.78228],[-122.50892,37.78201],[-122.50984,37.78219],[-122.51022,37.78203],[-122.51078,37.78206],[-122.50988,37.78063],[-122.50675,37.78077],[-122.50619,37.78103],[-122.49304,37.78165],[-122.49349,37.7835],[-122.48715,37.78378],[-122.48729,37.78565],[-122.47263,37.78632]]]]}},
{"type":"Feature","properties":{"id":"pacific-heights","label":"Pacific Heights","nhood":"Pacific Heights"},"geometry":{"type":"MultiPolygon","coordinates":[[[[-122.42349,37.79561],[-122.42323,37.79482],[-122.42331,37.79471],[-122.42305,37.79394],[-122.42313,37.79383],[-122.42252,37.79129],[-122.42245,37.79047],[-122.42233,37.79037],[-122.42562,37.78995],[-122.42505,37.78713],[-122.44318,37.78483],[-122.44375,37.78765],[-122.4454,37.78744],[-122.44673,37.79471],[-122.43695,37.79595],[-122.43676,37.79502],[-122.4236,37.79669],[-122.42349,37.79561]]]]}},
{"type":"Feature","properties":{"id":"portola","label":"Portola","nhood":"Portola"},"geometry":{"type":"MultiPolygon","coordinates":[[[[-122.40466,37.73295],[-122.40221,37.7281],[-122.40118,37.72459],[-122.39939,37.71988],[-122.39912,37.71973],[-122.39886,37.71868],[-122.39919,37.71809],[-122.39974,37.71618],[-122.40044,37.71916],[-122.40355,37.71834],[-122.40385,37.71883],[-122.4061,37.71984],[-122.40643,37.71975],[-122.40667,37.71921],[-122.4071,37.72009],[-122.40796,37.71986],[-122.40798,37.71974],[-122.40809,37.71983],[-122.41099,37.71907],[-122.41297,37.72386],[-122.41592,37.72309],[-122.41556,37.72223],[-122.41663,37.72216],[-122.41692,37.72282],[-122.41791,37.72263],[-122.41839,37.72377],[-122.41938,37.7235],[-122.41987,37.72471],[-122.41791,37.72522],[-122.4184,37.72642],[-122.41446,37.72746],[-122.41519,37.72922],[-122.41686,37.7288],[-122.41874,37.72909],[-122.41949,37.72905],[-122.41936,37.73144],[-122.42018,37.73146],[-122.42175,37.73109],[-122.4217,37.73181],[-122.41946,37.73206],[-122.41594,37.73207],[-122.41439,37.73242],[-122.41147,37.73379],[-122.4095,37.73504],[-122.40849,37.73629],[-122.40822,37.73761],[-122.4071,37.73797],[-122.40691,37.73797],[-122.40677,37.73642],[-122.40646,37.73551],[-122.40466,37.73295]]]]}},
{"type":"Feature","properties":{"id":"potrero-hill","label":"Potrero Hill","nhood":"Potrero Hill"},"geometry":{"type":"MultiPolygon","coordinates":[[[[-122.38487,37.76724],[-122.38485,37.76701],[-122.38286,37.76714],[-122.3828,37.76678],[-122.38586,37.7666],[-122.38591,37.76628],[-122.38652,37.76541],[-122.38645,37.7644],[-122.38674,37.76402],[-122.3866,37.7639],[-122.38724,37.76351],[-122.3865,37.76339],[-122.3866,37.76319],[-122.38631,37.7631],[-122.38621,37.76332],[-122.38528,37.76324],[-122.38518,37.76337],[-122.3851,37.76232],[-122.38468,37.76211],[-122.38429,37.76213],[-122.38446,37.76405],[-122.3843,37.76406],[-122.38413,37.76226],[-122.38343,37.7623],[-122.38345,37.76247],[-122.38374,37.76254],[-122.38391,37.76414],[-122.38358,37.76425],[-122.3833,37.76414],[-122.38311,37.76232],[-122.38229,37.76237],[-122.38251,37.76461],[-122.38234,37.76461],[-122.38212,37.76238],[-122.38175,37.76241],[-122.38169,37.76474],[-122.38117,37.76493],[-122.38098,37.7648],[-122.38103,37.76222],[-122.38331,37.76208],[-122.38205,37.76086],[-122.382,37.76064],[-122.3817,37.76065],[-122.38184,37.76212],[-122.38134,37.76215],[-122.38115,37.76016],[-122.38061,37.76019],[-122.38091,37.76334],[-122.3807,37.76334],[-122.3804,37.7602],[-122.37951,37.76025],[-122.37981,37.76346],[-122.37953,37.76347],[-122.3792,37.75994],[-122.38147,37.75957],[-122.38145,37.75931],[-122.3813,37.75931],[-122.3812,37.75827],[-122.38148,37.75753],[-122.38145,37.75711],[-122.38132,37.75712],[-122.3814,37.75641],[-122.38126,37.75631],[-122.38123,37.75587],[-122.38094,37.7558],[-122.38103,37.75574],[-122.38076,37.75555],[-122.38076,37.75524],[-122.38131,37.75507],[-122.38171,37.75516],[-122.3841,37.75491],[-122.384,37.75462],[-122.38343,37.75474],[-122.38302,37.75459],[-122.38279,37.75426],[-122.3829,37.7541],[-122.38273,37.75343],[-122.38171,37.75319],[-122.39651,37.75231],[-122.39641,37.75118],[-122.39941,37.75099],[-122.40047,37.75067],[-122.40261,37.75056],[-122.40278,37.75039],[-122.40287,37.74948],[-122.40378,37.74943],[-122.40331,37.75089],[-122.40336,37.75135],[-122.40298,37.75275],[-122.40331,37.75617],[-122.40377,37.75714],[-122.4059,37.75893],[-122.40626,37.75945],[-122.40649,37.76025],[-122.40628,37.76139],[-122.4052,37.76348],[-122.40509,37.76463],[-122.39385,37.76531],[-122.39397,37.76661],[-122.38816,37.76696],[-122.38792,37.76438],[-122.38761,37.76448],[-122.38662,37.76567],[-122.38582,37.76726],[-122.38487,37.76724]]]]}},
{"type":"Feature","properties":{"id":"presidio","label":"Presidio","nhood":"Presidio"},"geometry":{"type":"MultiPolygon","coordinates":[[[[-122.44813,37.80689],[-122.44815,37.80635],[-122.44849,37.80609],[-122.44824,37.80448],[-122.44882,37.80423],[-122.44939,37.80371],[-122.44956,37.80279],[-122.44918,37.80207],[-122.4488,37.80177],[-122.44836,37.80159],[-122.44782,37.80163],[-122.4463,37.79188],[-122.44937,37.79149],[-122.44943,37.79164],[-122.45948,37.78971],[-122.47091,37.78722],[-122.47332,37.78719],[-122.47555,37.78678],[-122.47878,37.7869],[-122.47985,37.7868],[-122.4838,37.78774],[-122.48453,37.78922],[-122.48399,37.78977],[-122.48431,37.79007],[-122.48441,37.78964],[-122.48505,37.78953],[-122.48543,37.78982],[-122.48594,37.79084],[-122.48436,37.79274],[-122.48359,37.79404],[-122.48329,37.79467],[-122.48352,37.79473],[-122.48218,37.79783],[-122.48208,37.79847],[-122.48183,37.79857],[-122.48193,37.79877],[-122.48155,37.79875],[-122.48169,37.79893],[-122.48139,37.79945],[-122.48111,37.79961],[-122.48097,37.80033],[-122.48076,37.80044],[-122.4802,37.80142],[-122.4799,37.8029],[-122.47873,37.80549],[-122.47841,37.80809],[-122.4779,37.80845],[-122.47798,37.81054],[-122.47769,37.81063],[-122.47774,37.81094],[-122.47731,37.81103],[-122.47647,37.81084],[-122.47605,37.80964],[-122.4748,37.80918],[-122.47267,37.80903],[-122.4706,37.8086],[-122.47003,37.80943],[-122.46992,37.80944],[-122.4694,37.8092],[-122.46945,37.80907],[-122.47005,37.80929],[-122.47054,37.80858],[-122.4693,37.80773],[-122.46879,37.807],[-122.4683,37.80682],[-122.46815,37.80698],[-122.46804,37.80691],[-122.46815,37.8067],[-122.46667,37.8058],[-122.46606,37.80642],[-122.46589,37.80631],[-122.46612,37.80632],[-122.46665,37.80579],[-122.46358,37.80488],[-122.4616,37.80496],[-122.45837,37.80549],[-122.45448,37.80647],[-122.45382,37.80629],[-122.45244,37.80627],[-122.4493,37.80684],[-122.44873,37.8067],[-122.44813,37.80689]]]]}},
{"type":"Feature","properties":{"id":"presidio-heights","label":"Presidio Heights","nhood":"Presidio Heights"},"geometry":{"type":"MultiPolygon","coordinates":[[[[-122.4463,37.79188],[-122.4454,37.78744],[-122.44375,37.78765],[-122.44279,37.78289],[-122.4473,37.78239],[-122.44737,37.78256],[-122.44806,37.78248],[-122.45552,37.78143],[-122.45886,37.78126],[-122.45948,37.78971],[-122.44943,37.79164],[-122.44937,37.79149],[-122.4463,37.79188]]]]}},
{"type":"Feature","properties":{"id":"russian-hill","label":"Russian Hill","nhood":"Russian Hill"},"geometry":{"type":"MultiPolygon","coordinates":[[[[-122.42649,37.80816],[-122.4265,37.80816],[-122.42649,37.80816]]],[[[-122.42652,37.80815],[-122.42653,37.80829],[-122.42654,37.8083],[-122.42653,37.80829],[-122.42652,37.80815]]],[[[-122.4266,37.80863],[-122.4266,37.80862],[-122.4266,37.80864],[-122.4266,37.80863]]],[[[-122.42662,37.80882],[-122.42664,37.80879],[-122.42662,37.80882]]],[[[-122.42662,37.80891],[-122.42662,37.80889],[-122.42662,37.80891]]],[[[-122.42661,37.80911],[-122.42661,37.8091],[-122.42661,37.80911]]],[[[-122.42654,37.80944],[-122.42653,37.80944],[-122.42654,37.80944]]],[[[-122.42284,37.81026],[-122.42137,37.80916],[-122.42121,37.80919],[-122.42091,37.8088],[-122.42072,37.8089],[-122.42076,37.80908],[-122.42036,37.809],[-122.42067,37.80896],[-122.42046,37.8083],[-122.41922,37.80845],[-122.41872,37.80593],[-122.41838,37.80598],[-122.41723,37.80517],[-122.41689,37.80521],[-122.41682,37.80489],[-122.41291,37.80218],[-122.41228,37.7991],[-122.41722,37.79847],[-122.41611,37.79301],[-122.42282,37.79226],[-122.42549,37.80601],[-122.42578,37.80672],[-122.42626,37.80719],[-122.42661,37.80815],[-122.42629,37.80755],[-122.42595,37.80754],[-122.42604,37.80769],[-122.42579,37.80741],[-122.42593,37.80752],[-122.42613,37.80735],[-122.42507,37.80676],[-122.42402,37.80662],[-122.42304,37.80698],[-122.42154,37.80806],[-122.42179,37.80837],[-122.42149,37.80811],[-122.42132,37.80828],[-122.42159,37.80854],[-122.4213,37.8083],[-122.42105,37.80855],[-122.42145,37.80916],[-122.42284,37.81026]]],[[[-122.42488,37.8108],[-122.4243,37.81057],[-122.42439,37.81042],[-122.42461,37.81042],[-122.42476,37.81063],[-122.42545,37.81052],[-122.42603,37.81021],[-122.42649,37.80957],[-122.42667,37.80964],[-122.42628,37.81021],[-122.42574,37.81059],[-122.42488,37.8108]]],[[[-122.42356,37.81015],[-122.42331,37.80988],[-122.42359,37.81014],[-122.42366,37.81037],[-122.42362,37.8106],[-122.42349,37.81082],[-122.42327,37.81098],[-122.42081,37.81188],[-122.42325,37.81096],[-122.42359,37.81059],[-122.42356,37.81015]]]]}},
{"type":"Feature","properties":{"id":"seacliff","label":"Seacliff","nhood":"Seacliff"},"geometry":{"type":"MultiPolygon","coordinates":[[[[-122.47235,37.78723],[-122.47263,37.78632],[-122.48729,37.78565],[-122.48715,37.78378],[-122.49349,37.7835],[-122.49334,37.7874],[-122.49302,37.78774],[-122.49283,37.78788],[-122.49268,37.78775],[-122.49222,37.78784],[-122.49128,37.78828],[-122.48983,37.78948],[-122.48899,37.78928],[-122.48786,37.78959],[-122.48737,37.78943],[-122.48594,37.79084],[-122.48543,37.78982],[-122.48505,37.78953],[-122.48441,37.78964],[-122.48431,37.79007],[-122.48399,37.78977],[-122.48453,37.78922],[-122.4838,37.78774],[-122.48187,37.78722],[-122.47985,37.7868],[-122.47878,37.7869],[-122.47555,37.78678],[-122.47235,37.78723]]]]}},
{"type":"Feature","properties":{"id":"soma","label":"SoMa","nhood":"South of Market"},"geometry":{"type":"MultiPolygon","coordinates":[[[[-122.40583,37.78574],[-122.40271,37.78326],[-122.40047,37.78503],[-122.39275,37.77885],[-122.39721,37.77533],[-122.39876,37.77657],[-122.40098,37.77481],[-122.39943,37.77357],[-122.40439,37.76975],[-122.40594,37.76966],[-122.40621,37.76946],[-122.407,37.77005],[-122.40801,37.76924],[-122.40844,37.76932],[-122.40974,37.77035],[-122.41093,37.76941],[-122.41866,37.77556],[-122.40598,37.78569],[-122.40583,37.78574]]]]}},
{"type":"Feature","properties":{"id":"sunset-parkside","label":"Sunset / Parkside","nhood":"Sunset/Parkside"},"geometry":{"type":"MultiPolygon","coordinates":[[[[-122.47731,37.76545],[-122.47675,37.75995],[-122.47688,37.75972],[-122.47486,37.73107],[-122.48193,37.73117],[-122.48618,37.73088],[-122.48655,37.72959],[-122.48921,37.73032],[-122.4899,37.73016],[-122.49101,37.72907],[-122.49144,37.72886],[-122.49227,37.72884],[-122.49331,37.72936],[-122.49347,37.7296],[-122.49569,37.72906],[-122.49636,37.72903],[-122.49723,37.72949],[-122.498,37.73128],[-122.49906,37.73158],[-122.49811,37.73227],[-122.49664,37.73377],[-122.4992,37.73431],[-122.50049,37.7351],[-122.50203,37.73552],[-122.50515,37.73556],[-122.50537,37.73538],[-122.50854,37.7354],[-122.50845,37.73632],[-122.50879,37.73755],[-122.50889,37.739],[-122.50872,37.74025],[-122.50904,37.74114],[-122.50925,37.74134],[-122.50905,37.74246],[-122.50968,37.74444],[-122.50944,37.74493],[-122.50934,37.74594],[-122.50983,37.74773],[-122.50971,37.74908],[-122.51043,37.75035],[-122.51054,37.7516],[-122.51103,37.75255],[-122.51101,37.75319],[-122.5113,37.75435],[-122.51113,37.7552],[-122.51144,37.75633],[-122.51195,37.75979],[-122.51186,37.76091],[-122.51247,37.76252],[-122.51227,37.7632],[-122.51237,37.76359],[-122.51016,37.76408],[-122.47731,37.76545]]]]}},
{"type":"Feature","properties":{"id":"tenderloin","label":"Tenderloin","nhood":"Tenderloin"},"geometry":{"type":"MultiPolygon","coordinates":[[[[-122.40734,37.78456],[-122.41926,37.77515],[-122.4194,37.77542],[-122.42144,37.78557],[-122.4213,37.78579],[-122.42157,37.78662],[-122.4084,37.78829],[-122.4077,37.7847],[-122.40734,37.78456]]]]}},
{"type":"Feature","properties":{"id":"treasure-island","label":"Treasure Island","nhood":"Treasure Island"},"geometry":{"type":"MultiPolygon","coordinates":[[[[-122.36358,37.82087],[-122.36046,37.82012],[-122.36058,37.8198],[-122.36364,37.82054],[-122.36426,37.81885],[-122.36483,37.8185],[-122.36476,37.8184],[-122.36492,37.81833],[-122.36505,37.81851],[-122.37102,37.816],[-122.37038,37.81423],[-122.3698,37.8134],[-122.36877,37.8127],[-122.36756,37.81233],[-122.367,37.81235],[-122.36505,37.81325],[-122.36495,37.81356],[-122.36409,37.81406],[-122.36208,37.81415],[-122.36175,37.81446],[-122.3604,37.81469],[-122.35938,37.81504],[-122.35891,37.81477],[-122.35887,37.8144],[-122.35928,37.81344],[-122.35969,37.81334],[-122.36104,37.81247],[-122.3613,37.8109],[-122.36119,37.81025],[-122.3607,37.81032],[-122.3604,37.81092],[-122.36024,37.8109],[-122.36057,37.8102],[-122.36115,37.81012],[-122.36097,37.80809],[-122.36131,37.80806],[-122.36169,37.80771],[-122.36189,37.80708],[-122.36262,37.80707],[-122.36279,37.80735],[-122.36322,37.80748],[-122.36436,37.80755],[-122.36498,37.80741],[-122.36522,37.80763],[-122.3658,37.80761],[-122.36629,37.80738],[-122.36725,37.80739],[-122.36734,37.8076],[-122.36779,37.80788],[-122.36801,37.80776],[-122.36963,37.80859],[-122.3703,37.80863],[-122.37169,37.80949],[-122.37203,37.81006],[-122.37282,37.81077],[-122.37286,37.81118],[-122.37217,37.81135],[-122.37204,37.81162],[-122.37179,37.81269],[-122.37157,37.81304],[-122.37175,37.81316],[-122.37177,37.81357],[-122.37144,37.81356],[-122.37127,37.81471],[-122.37147,37.81526],[-122.3748,37.82024],[-122.37523,37.81957],[-122.3754,37.81961],[-122.37505,37.8203],[-122.37484,37.8203],[-122.37679,37.82299],[-122.37912,37.82678],[-122.37769,37.83044],[-122.37343,37.83231],[-122.37304,37.833],[-122.37259,37.83329],[-122.37244,37.83317],[-122.37299,37.83283],[-122.37313,37.83225],[-122.36862,37.83115],[-122.36284,37.82259],[-122.36358,37.82087]]]]}},
{"type":"Feature","properties":{"id":"twin-peaks","label":"Twin Peaks","nhood":"Twin Peaks"},"geometry":{"type":"MultiPolygon","coordinates":[[[[-122.44695,37.75655],[-122.44595,37.75641],[-122.44503,37.75661],[-122.44438,37.7564],[-122.44441,37.75657],[-122.44511,37.75696],[-122.44496,37.75727],[-122.44298,37.75616],[-122.44222,37.75664],[-122.44237,37.75758],[-122.44218,37.75894],[-122.43917,37.75903],[-122.43886,37.75543],[-122.44035,37.75523],[-122.44131,37.75388],[-122.44249,37.75261],[-122.44253,37.75238],[-122.44285,37.75237],[-122.44355,37.74944],[-122.44427,37.74838],[-122.44417,37.74756],[-122.44443,37.74717],[-122.44482,37.74697],[-122.44456,37.74669],[-122.44505,37.74702],[-122.44619,37.74684],[-122.45097,37.74587],[-122.45162,37.74553],[-122.45182,37.74567],[-122.45392,37.7457],[-122.45482,37.74622],[-122.45667,37.74666],[-122.45791,37.74686],[-122.45873,37.74675],[-122.45917,37.74729],[-122.45871,37.74761],[-122.45866,37.74804],[-122.4604,37.74976],[-122.46104,37.75096],[-122.46152,37.7515],[-122.46067,37.75181],[-122.45899,37.75195],[-122.45703,37.7514],[-122.45645,37.75148],[-122.45609,37.7518],[-122.45603,37.75289],[-122.45524,37.75421],[-122.45505,37.75512],[-122.45425,37.75635],[-122.45403,37.75718],[-122.45283,37.7581],[-122.45093,37.75872],[-122.44854,37.75904],[-122.44818,37.75785],[-122.44712,37.75687],[-122.44695,37.75655]]]]}},
{"type":"Feature","properties":{"id":"visitacion-valley","label":"Visitacion Valley","nhood":"Visitacion Valley"},"geometry":{"type":"MultiPolygon","coordinates":[[[[-122.40385,37.71883],[-122.40355,37.71834],[-122.40044,37.71916],[-122.39974,37.71618],[-122.39919,37.71809],[-122.39886,37.71868],[-122.39855,37.71786],[-122.39833,37.71626],[-122.39899,37.71534],[-122.39936,37.71427],[-122.40047,37.71312],[-122.40126,37.71264],[-122.40282,37.71213],[-122.40328,37.71182],[-122.40468,37.70993],[-122.40545,37.70835],[-122.42377,37.70834],[-122.42335,37.70925],[-122.42455,37.7101],[-122.42281,37.71051],[-122.42241,37.71097],[-122.42196,37.71202],[-122.42147,37.7122],[-122.42123,37.71331],[-122.42091,37.71377],[-122.42033,37.71397],[-122.41563,37.71273],[-122.41529,37.7135],[-122.41595,37.71382],[-122.41621,37.71453],[-122.41605,37.71501],[-122.41566,37.71549],[-122.41132,37.71437],[-122.41036,37.71669],[-122.40895,37.71646],[-122.40817,37.71616],[-122.40784,37.71692],[-122.40862,37.71712],[-122.40826,37.71809],[-122.40727,37.71782],[-122.40643,37.71975],[-122.4061,37.71984],[-122.40532,37.71958],[-122.40385,37.71883]]]]}},
{"type":"Feature","properties":{"id":"west-of-twin-peaks","label":"West of Twin Peaks","nhood":"West of Twin Peaks"},"geometry":{"type":"MultiPolygon","coordinates":[[[[-122.46142,37.75145],[-122.46055,37.74994],[-122.45866,37.74804],[-122.45871,37.74761],[-122.45917,37.74729],[-122.45873,37.74675],[-122.45791,37.74686],[-122.45667,37.74666],[-122.45482,37.74622],[-122.45392,37.7457],[-122.45182,37.74567],[-122.44992,37.74327],[-122.44914,37.74283],[-122.44666,37.74244],[-122.44626,37.74207],[-122.4461,37.74136],[-122.4459,37.74112],[-122.44468,37.74079],[-122.44392,37.74009],[-122.44272,37.73968],[-122.44252,37.73945],[-122.44263,37.73831],[-122.44242,37.73744],[-122.44375,37.73636],[-122.44382,37.73601],[-122.44367,37.73579],[-122.4433,37.73568],[-122.4417,37.73595],[-122.44115,37.73571],[-122.44069,37.73507],[-122.43839,37.73442],[-122.43242,37.73318],[-122.43645,37.73133],[-122.43956,37.73019],[-122.43948,37.73011],[-122.44379,37.72823],[-122.44504,37.7273],[-122.44631,37.72598],[-122.4472,37.72464],[-122.44788,37.723],[-122.45233,37.72308],[-122.46221,37.72527],[-122.46227,37.7217],[-122.47232,37.72162],[-122.47245,37.72145],[-122.47257,37.71717],[-122.4749,37.71945],[-122.47523,37.71984],[-122.47534,37.72027],[-122.47522,37.72044],[-122.47534,37.72087],[-122.47505,37.72121],[-122.47474,37.72687],[-122.4749,37.72699],[-122.47473,37.72703],[-122.47463,37.72893],[-122.47478,37.73099],[-122.47493,37.73118],[-122.47609,37.74854],[-122.47603,37.74865],[-122.46634,37.74907],[-122.46647,37.75094],[-122.4649,37.75101],[-122.46419,37.75072],[-122.46428,37.75098],[-122.46344,37.75119],[-122.46385,37.75198],[-122.46442,37.75232],[-122.46446,37.7529],[-122.46336,37.75304],[-122.46142,37.75145]]]]}},
{"type":"Feature","properties":{"id":"western-addition","label":"Western Addition","nhood":"Western Addition"},"geometry":{"type":"MultiPolygon","coordinates":[[[[-122.42144,37.78557],[-122.42025,37.78007],[-122.42354,37.77967],[-122.42335,37.77875],[-122.44149,37.77644],[-122.44205,37.77924],[-122.44096,37.77936],[-122.44151,37.7821],[-122.44269,37.78264],[-122.4427,37.78297],[-122.43948,37.78331],[-122.43802,37.78377],[-122.4249,37.78544],[-122.42469,37.78534],[-122.42562,37.78995],[-122.42233,37.79037],[-122.42169,37.78669],[-122.42145,37.78653],[-122.4213,37.78579],[-122.42144,37.78557]]]]}}
]}
